DMSP 5D-3 F16 (USA 172) 
1 28054U 03048A   26188.74728449 -.00000009  00000+0  18747-4 0  9994
2 28054  98.9886 212.7110 0008216  89.4251 323.3709 14.14484929172394
METEOSAT-9 (MSG-2)      
1 28912U 05049B   26188.22521814  .00000133  00000+0  00000+0 0  9995
2 28912   9.4037  53.9656 0002161   0.5612 357.4517  1.00268823  7194
DMSP 5D-3 F17 (USA 191) 
1 29522U 06050A   26188.74666095  .00000004  00000+0  24480-4 0  9994
2 29522  98.7382 194.8963 0010181   4.3553 355.7708 14.14995854 15337
FENGYUN 3A              
1 32958U 08026A   26188.76946199  .00000052  00000+0  44996-4 0  9991
2 32958  98.6886 129.2180 0009852  71.0825 289.1419 14.19575488938325
GOES 14                 
1 35491U 09033A   26188.74106316 -.00000335  00000+0  00000+0 0  9990
2 35491   1.7395  82.7948 0002012  34.9932 204.3708  1.00102235  6792
DMSP 5D-3 F18 (USA 210) 
1 35951U 09057A   26188.79007035  .00000216  00000+0  13489-3 0  9996
2 35951  98.9049 169.5155 0010773 186.5355 173.5679 14.14908093862505
EWS-G2 (GOES 15)        
1 36411U 10008A   26188.72788976  .00000036  00000+0  00000+0 0  9990
2 36411   1.3307  82.5659 0005289  51.0072 117.5653  1.00268168 59841
COMS 1                  
1 36744U 10032A   26188.00140631 -.00000175  00000+0  00000+0 0  9992
2 36744   4.8529  75.1185 0011440  14.6993 190.2555  0.99169409 51283
FENGYUN 3B              
1 37214U 10059A   26188.89362332 -.00000345  00000+0 -15514-3 0  9995
2 37214  98.9607 234.9948 0022949 126.2732 349.5821 14.14845006810358
SUOMI NPP               
1 37849U 11061A   26188.78147397  .00000056  00000+0  47617-4 0  9990
2 37849  98.7955 129.5172 0000567 270.2245  89.8866 14.19521584761361
METEOSAT-10 (MSG-3)     
1 38552U 12035B   26188.28762247  .00000005  00000+0  00000+0 0  9990
2 38552   4.7161  60.9176 0001286  18.9815 308.9890  1.00269748 51057
METOP-B                 
1 38771U 12049A   26188.74376807  .00000069  00000+0  51499-4 0  9995
2 38771  98.6493 239.8318 0001110 301.4211  58.6858 14.21444955716188
INSAT-3D                
1 39216U 13038B   26188.74097648 -.00000325  00000+0  00000+0 0  9995
2 39216   1.9759  82.2873 0000517  60.5134 179.1806  1.00272402 47287
FENGYUN 3C              
1 39260U 13052A   26188.89245942  .00000072  00000+0  57871-4 0  9999
2 39260  98.4992 161.8178 0014018 328.2003  31.8324 14.15759668661496
METEOR-M 2              
1 40069U 14037A   26188.84022781  .00000173  00000+0  98477-4 0  9990
2 40069  98.5130 163.8479 0005608 349.6295  10.4767 14.21468018622259
HIMAWARI-8              
1 40267U 14060A   26188.74322984 -.00000260  00000+0  00000+0 0  9991
2 40267   0.0372 277.5001 0000887 204.0391 212.3957  1.00270432 42966
FENGYUN 2G              
1 40367U 14090A   26188.80024997 -.00000288  00000+0  00000+0 0  9995
2 40367   5.6876  72.5714 0003874 150.3057  90.4158  1.00263947 42200
METEOSAT-11 (MSG-4)     
1 40732U 15034A   26188.71722824  .00000075  00000+0  00000+0 0  9997
2 40732   3.2515  70.9828 0002260 351.0471 131.1211  1.00269523  7420
ELEKTRO-L 2             
1 41105U 15074A   26188.24653743 -.00000106  00000+0  00000+0 0  9993
2 41105   6.7409  70.2783 0000601 240.8898  48.2797  1.00273381 38702
SENTINEL-3A             
1 41335U 16011A   26188.76462175  .00000074  00000+0  48594-4 0  9992
2 41335  98.6240 255.8518 0001410  92.4321 267.7020 14.26738386540997
INSAT-3DR               
1 41752U 16054A   26188.65872647 -.00000062  00000+0  00000+0 0  9992
2 41752   0.0500  89.4185 0010444 181.3494 325.9940  1.00272227 36020
HIMAWARI-9              
1 41836U 16064A   26187.95906303  .00000000  00000+0  00000+0 0  9996
2 41836   0.0138  10.3948 0002206 162.3808 238.1863  1.00271383 35407
GOES 16                 
1 41866U 16071A   26188.69460816 -.00000076  00000+0  00000+0 0  9997
2 41866   0.3884  85.6316 0000494  71.9669 273.4345  1.00271466 35300
FENGYUN 4A              
1 41882U 16077A   26188.88243799 -.00000343  00000+0  00000+0 0  9998
2 41882   2.3716  80.0617 0008187 157.8956 129.3467  1.00272744 35132
CYGFM05                 
1 41884U 16078A   26188.24688169  .00018785  00000+0  24617-3 0  9997
2 41884  34.9560 127.6686 0007468 322.9181  37.1027 15.57578683531881
CYGFM04                 
1 41885U 16078B   26188.15353659  .00025085  00000+0  26974-3 0  9990
2 41885  34.9321  94.9485 0005578 358.8214   1.2498 15.62704475532123
CYGFM02                 
1 41886U 16078C   26188.75230649  .00029792  00000+0  28136-3 0  9991
2 41886  34.9397  84.8610 0006362   9.0989 350.9853 15.65941415532399
CYGFM01                 
1 41887U 16078D   26188.22665621  .00019674  00000+0  25096-3 0  9996
2 41887  34.9388 128.6947 0007413 316.9964  43.0180 15.58285664531831
CYGFM08                 
1 41888U 16078E   26188.15092975  .00023550  00000+0  26934-3 0  9995
2 41888  34.9424 108.2367 0007748 348.0053  12.0487 15.61111887532093
CYGFM07                 
1 41890U 16078G   26188.17274105  .00023080  00000+0  26304-3 0  9996
2 41890  34.9442  96.4152 0005967   0.1266 359.9460 15.61221304532123
CYGFM03                 
1 41891U 16078H   26188.14386455  .00023492  00000+0  26783-3 0  9994
2 41891  34.9394  98.5399 0006087 346.3478  13.7082 15.61208080532097
